[{"OBJECT_NAME":"STARLINK-34481","OBJECT_ID":"2025-167AC","EPOCH":"2026-03-09T07:16:56.944704","MEAN_MOTION":15.30197964,"ECCENTRICITY":0.0001182,"INCLINATION":53.1604,"RA_OF_ASC_NODE":28.2391,"ARG_OF_PERICENTER":67.636,"MEAN_ANOMALY":292.4766,"EPHEMERIS_TYPE":0,"CLASSIFICATION_TYPE":"U","NORAD_CAT_ID":65104,"ELEMENT_SET_NO":999,"REV_AT_EPOCH":3342,"BSTAR":0.001586126,"MEAN_MOTION_DOT":0.00046911,"MEAN_MOTION_DDOT":0},{"OBJECT_NAME":"KUIPER-00222","OBJECT_ID":"2026-030U","EPOCH":"2026-03-09T16:13:57.726048","MEAN_MOTION":15.32445377,"ECCENTRICITY":0.00128002,"INCLINATION":51.8817,"RA_OF_ASC_NODE":219.7147,"ARG_OF_PERICENTER":40.1845,"MEAN_ANOMALY":320.0084,"EPHEMERIS_TYPE":0,"CLASSIFICATION_TYPE":"U","NORAD_CAT_ID":67782,"ELEMENT_SET_NO":999,"REV_AT_EPOCH":508,"BSTAR":0.0017317201,"MEAN_MOTION_DOT":0.00055223,"MEAN_MOTION_DDOT":0}]
